BEIJING 1               
1 28890U 05043A   17324.81535180  .00000065  00000-0  22146-4 0  9997
2 28890  97.8967 113.5572 0015745  23.1899 337.0013 14.61201445643292
HJ-1A                   
1 33320U 08041A   17324.75906487  .00000222  00000-0  38801-4 0  9997
2 33320  97.9181  26.7435 0024815 239.4090 120.4680 14.76859499495890
HJ-1B                   
1 33321U 08041B   17324.75683002  .00000230  00000-0  39783-4 0  9992
2 33321  97.9237  28.0711 0033204 256.6076 103.1437 14.76941034495886
YAOGAN 4                
1 33446U 08061A   17324.84201778  .00000155  00000-0  28915-4 0  9999
2 33446  97.6053 312.7248 0016629 147.3374 212.8869 14.76718554483146
DEIMOS-1                
1 35681U 09041A   17324.71620331 -.00000110  00000-0 -99932-5 0  9998
2 35681  97.9317 213.2624 0001887 131.2255 228.9122 14.71698922446160
UK-DMC 2                
1 35683U 09041C   17324.77147748  .00000145  00000-0  31192-4 0  9991
2 35683  97.8126 197.3798 0001442  75.0266 285.1103 14.70996324446022
RISAT 1                 
1 38248U 12017A   17324.83694652  .00001219  00000-0  80390-4 0  9993
2 38248  97.5737 330.5336 0002949 209.1089 274.5567 15.09326570306868
DMC3-FM1                
1 40715U 15032A   17324.81315149  .00000052  00000-0  15782-4 0  9991
2 40715  98.0218 218.7662 0016477   1.4572 358.6692 14.73699011127261
DMC3-FM2                
1 40716U 15032B   17324.83557384  .00000055  00000-0  16194-4 0  9994
2 40716  98.0238 218.9006 0013920  11.1665 348.9859 14.73710110127271
DMC3-FM3                
1 40717U 15032C   17324.85875935  .00000056  00000-0  16333-4 0  9998
2 40717  98.0223 219.6523 0017523   2.5743 357.5556 14.73696094127276
